{
    "links": {
        "self": "http://www.neowsapp.com/rest/v1/neo/3617954?api_key=iIulBulltgU6a56xZRHN4H3l9WmuAYTsLGpBGhQ2"
    },
    "id": "3617954",
    "neo_reference_id": "3617954",
    "name": "(2012 VD77)",
    "designation": "2012 VD77",
    "nasa_jpl_url": "http://ssd.jpl.nasa.gov/sbdb.cgi?sstr=3617954",
    "absolute_magnitude_h": 22.8,
    "estimated_diameter": {
        "kilometers": {
            "estimated_diameter_min": 0.0732073989,
            "estimated_diameter_max": 0.1636967205
        },
        "meters": {
            "estimated_diameter_min": 73.2073989347,
            "estimated_diameter_max": 163.696720474
        },
        "miles": {
            "estimated_diameter_min": 0.0454889547,
            "estimated_diameter_max": 0.1017163949
        },
        "feet": {
            "estimated_diameter_min": 240.181762721,
            "estimated_diameter_max": 537.0627483999
        }
    },
    "is_potentially_hazardous_asteroid": false,
    "close_approach_data": [
        {
            "close_approach_date": "2012-11-10",
            "close_approach_date_full": "2012-Nov-10 21:13",
            "epoch_date_close_approach": 1352581980000,
            "relative_velocity": {
                "kilometers_per_second": "11.7736757717",
                "kilometers_per_hour": "42385.2327781988",
                "miles_per_hour": "26336.5353337647"
            },
            "miss_distance": {
                "astronomical": "0.0899794304",
                "lunar": "35.0019984256",
                "kilometers": "13460731.131653248",
                "miles": "8364110.4762529024"
            },
            "orbiting_body": "Earth"
        }
    ],
    "orbital_data": {
        "orbit_id": "11",
        "orbit_determination_date": "2017-04-06 08:47:59",
        "first_observation_date": "2012-11-14",
        "last_observation_date": "2012-12-05",
        "data_arc_in_days": 21,
        "observations_used": 52,
        "orbit_uncertainty": "8",
        "minimum_orbit_intersection": ".018622",
        "jupiter_tisserand_invariant": "3.135",
        "epoch_osculation": "2456249.5",
        "eccentricity": ".6186259112960563",
        "semi_major_axis": "2.558021590201445",
        "inclination": "2.314594992774707",
        "ascending_node_longitude": "143.0024570059365",
        "orbital_period": "1494.358283879028",
        "perihelion_distance": ".975563152848089",
        "perihelion_argument": "231.2186283613127",
        "aphelion_distance": "4.1404800275548",
        "perihelion_time": "2456218.042307528709",
        "mean_anomaly": "7.578349457312291",
        "mean_motion": ".2409060824861348",
        "equinox": "J2000",
        "orbit_class": {
            "orbit_class_type": "APO",
            "orbit_class_description": "Near-Earth asteroid orbits which cross the Earth’s orbit similar to that of 1862 Apollo",
            "orbit_class_range": "a (semi-major axis) > 1.0 AU; q (perihelion) < 1.017 AU"
        }
    },
    "is_sentry_object": false
}